{
    "links": {
        "self": "http://www.neowsapp.com/rest/v1/neo/3646732?api_key=iIulBulltgU6a56xZRHN4H3l9WmuAYTsLGpBGhQ2"
    },
    "id": "3646732",
    "neo_reference_id": "3646732",
    "name": "(2013 QD11)",
    "designation": "2013 QD11",
    "nasa_jpl_url": "http://ssd.jpl.nasa.gov/sbdb.cgi?sstr=3646732",
    "absolute_magnitude_h": 25.7,
    "estimated_diameter": {
        "kilometers": {
            "estimated_diameter_min": 0.0192555078,
            "estimated_diameter_max": 0.0430566244
        },
        "meters": {
            "estimated_diameter_min": 19.2555078188,
            "estimated_diameter_max": 43.0566244241
        },
        "miles": {
            "estimated_diameter_min": 0.0119648141,
            "estimated_diameter_max": 0.0267541378
        },
        "feet": {
            "estimated_diameter_min": 63.1742402722,
            "estimated_diameter_max": 141.2618956756
        }
    },
    "is_potentially_hazardous_asteroid": false,
    "close_approach_data": [
        {
            "close_approach_date": "2013-08-20",
            "close_approach_date_full": "2013-Aug-20 22:29",
            "epoch_date_close_approach": 1377037740000,
            "relative_velocity": {
                "kilometers_per_second": "6.9571819838",
                "kilometers_per_hour": "25045.8551416655",
                "miles_per_hour": "15562.5203795532"
            },
            "miss_distance": {
                "astronomical": "0.0433712464",
                "lunar": "16.8714148496",
                "kilometers": "6488246.080685168",
                "miles": "4031609.1663365984"
            },
            "orbiting_body": "Earth"
        },
        {
            "close_approach_date": "2016-09-23",
            "close_approach_date_full": "2016-Sep-23 20:10",
            "epoch_date_close_approach": 1474661400000,
            "relative_velocity": {
                "kilometers_per_second": "16.3817723777",
                "kilometers_per_hour": "58974.3805597096",
                "miles_per_hour": "36644.3866316706"
            },
            "miss_distance": {
                "astronomical": "0.3362270234",
                "lunar": "130.7923121026",
                "kilometers": "50298846.537080158",
                "miles": "31254253.9591278604"
            },
            "orbiting_body": "Earth"
        }
    ],
    "orbital_data": {
        "orbit_id": "9",
        "orbit_determination_date": "2017-04-06 08:45:02",
        "first_observation_date": "2013-08-28",
        "last_observation_date": "2013-09-14",
        "data_arc_in_days": 17,
        "observations_used": 52,
        "orbit_uncertainty": "7",
        "minimum_orbit_intersection": ".0302507",
        "jupiter_tisserand_invariant": "3.573",
        "epoch_osculation": "2459000.5",
        "eccentricity": ".5038160186173236",
        "semi_major_axis": "2.102663363387055",
        "inclination": ".3407650788773989",
        "ascending_node_longitude": "206.3898835441859",
        "orbital_period": "1113.661095569881",
        "perihelion_distance": "1.043307879152878",
        "perihelion_argument": "109.3115534858181",
        "aphelion_distance": "3.162018847621232",
        "perihelion_time": "2458743.750149502394",
        "mean_anomaly": "82.99647581012063",
        "mean_motion": ".3232581271197064",
        "equinox": "J2000",
        "orbit_class": {
            "orbit_class_type": "AMO",
            "orbit_class_description": "Near-Earth asteroid orbits similar to that of 1221 Amor",
            "orbit_class_range": "1.017 AU < q (perihelion) < 1.3 AU"
        }
    },
    "is_sentry_object": false
}